[{"OBJECT_NAME":"CHUTIAN-2 B","OBJECT_ID":"2025-256B","EPOCH":"2026-03-09T20:41:11.762016","MEAN_MOTION":14.50086658,"ECCENTRICITY":0.00126455,"INCLINATION":98.2627,"RA_OF_ASC_NODE":137.0927,"ARG_OF_PERICENTER":279.5668,"MEAN_ANOMALY":80.4098,"EPHEMERIS_TYPE":0,"CLASSIFICATION_TYPE":"U","NORAD_CAT_ID":66410,"ELEMENT_SET_NO":999,"REV_AT_EPOCH":1750,"BSTAR":0.00019761492,"MEAN_MOTION_DOT":7.23e-6,"MEAN_MOTION_DDOT":0},{"OBJECT_NAME":"NOAA 16 DEB","OBJECT_ID":"2000-055PA","EPOCH":"2026-03-08T23:57:58.925088","MEAN_MOTION":14.43795572,"ECCENTRICITY":0.00199897,"INCLINATION":99.041,"RA_OF_ASC_NODE":262.6065,"ARG_OF_PERICENTER":177.7602,"MEAN_ANOMALY":182.368,"EPHEMERIS_TYPE":0,"CLASSIFICATION_TYPE":"U","NORAD_CAT_ID":41661,"ELEMENT_SET_NO":999,"REV_AT_EPOCH":51326,"BSTAR":0.0024624821,"MEAN_MOTION_DOT":8.362e-5,"MEAN_MOTION_DDOT":0}]
